O3B FM5                 
1 39188U 13031A   24362.37181584 -.00000011  00000+0  00000+0 0  9992
2 39188   0.0616 347.8851 0002675 292.3442  79.7423  5.00115229210185
O3B FM4                 
1 39189U 13031B   24362.22743256 -.00000012  00000+0  00000+0 0  9998
2 39189   0.0380   5.4109 0002642 273.9472  80.6136  5.00115147210191
O3B FM2                 
1 39190U 13031C   24360.32027861 -.00000014  00000+0  00000+0 0  9998
2 39190   0.0336   9.2801 0002651 267.3460  83.3450  5.00115708210146
O3B PFM                 
1 39191U 13031D   24360.34566717 -.00000014  00000+0  00000+0 0  9999
2 39191   0.0545 353.3125 0002721 282.0315  84.6263  5.00115115209700
O3B FM3                 
1 40079U 14038A   24361.79979002 -.00000012  00000+0  00000+0 0  9997
2 40079   0.0438 358.1010 0005155 274.1068  87.7348  5.00114778191257
O3B FM7                 
1 40080U 14038B   24361.74600574 -.00000012  00000+0  00000+0 0  9999
2 40080   0.0395 356.5580 0001184 316.4470  46.9868  5.00115277191282
O3B FM6                 
1 40081U 14038C   24362.37280860 -.00000011  00000+0  00000+0 0  9991
2 40081   0.0436 359.5924 0002786 279.3208  81.0569  5.00115514190976
O3B FM8                 
1 40082U 14038D   24361.22693688 -.00000013  00000+0  00000+0 0  9993
2 40082   0.0426 358.9382 0002759 275.0976  85.9342  5.00115627191037
O3B FM10                
1 40348U 14083A   24359.05454022 -.00000016  00000+0  00000+0 0  9996
2 40348   0.0527 358.6004 0002711 276.8415  84.5280  5.00115731182860
O3B FM11                
1 40349U 14083B   24361.06667957 -.00000013  00000+0  00000+0 0  9991
2 40349   0.0512 353.5019 0002350 296.1380  70.3363  5.00115671182992
O3B FM12                
1 40350U 14083C   24358.89515759 -.00000016  00000+0  00000+0 0  9995
2 40350   0.0508 354.5101 0002811 284.3707  81.0881  5.00115725182899
O3B FM9                 
1 40351U 14083D   24361.72030696 -.00000012  00000+0  00000+0 0  9990
2 40351   0.0512 352.1128 0002666 285.3360  82.5225  5.00115384183184
LEO 1 (LEO VANTAGE 1)   
1 43113U 18004C   24362.48595731  .00007388  00000+0  53907-3 0  9996
2 43113  99.2941 200.0980 0366235 280.6638  75.3525 14.63162848358865
O3B FM15                
1 43231U 18024A   24361.78685298 -.00000012  00000+0  00000+0 0  9999
2 43231   0.0543   1.7026 0002977 277.8661  80.3993  5.00115183124143
O3B FM16                
1 43232U 18024B   24359.84055610 -.00000015  00000+0  00000+0 0  9996
2 43232   0.0572   4.7797 0002963 273.3027  81.8851  5.00115521123960
O3B FM14                
1 43233U 18024C   24358.88157699 -.00000016  00000+0  00000+0 0  9991
2 43233   0.0568   6.4545 0002841 267.2226  86.2911  5.00115118123928
O3B FM13                
1 43234U 18024D   24361.33357795 -.00000012  00000+0  00000+0 0  9991
2 43234   0.0587 332.2345 0003395 313.4642  74.2655  5.00115276124152
O3B FM20                
1 44112U 19020A   24362.50561826 -.00000011  00000+0  00000+0 0  9995
2 44112   0.0520 358.8308 0003038 288.8216  72.3160  5.00115183104722
O3B FM19                
1 44113U 19020B   24362.53293298 -.00000011  00000+0  00000+0 0  9994
2 44113   0.0480 343.4134 0001369 304.1559  72.4174  5.00115187104597
O3B FM17                
1 44114U 19020C   24362.41280859 -.00000011  00000+0  00000+0 0  9991
2 44114   0.0488  20.9607 0003068 260.5362  78.4704  5.00115019104671
O3B FM18                
1 44115U 19020D   24362.35900144 -.00000011  00000+0  00000+0 0  9991
2 44115   0.0523 358.4022 0002961 279.6729  81.8930  5.00114970104798
SALSAT                  
1 46495U 20068K   24362.45593879  .00014646  00000+0  71083-3 0  9993
2 46495  97.8412 327.6107 0013420  18.8954 341.2774 15.18513633233587
O3B MPOWER F1           
1 54755U 22174A   24362.50175161 -.00000011  00000+0  00000+0 0  9996
2 54755   0.0394 348.7342 0005991 274.4434 214.4153  5.00116658 38516
O3B MPOWER F2           
1 54756U 22174B   24362.16987660 -.00000012  00000+0  00000+0 0  9995
2 54756   0.0364 352.4417 0005977 285.0298  82.4623  5.00113597 38579
O3B MPOWER F4           
1 56367U 23059A   24362.46962935 -.00000011  00000+0  00000+0 0  9998
2 56367   0.0563 347.0736 0005437 273.4608  99.4058  5.00117259 31753
O3B MPOWER F3           
1 56368U 23059B   24362.33650516 -.00000011  00000+0  00000+0 0  9994
2 56368   0.0580 347.3019 0006427 291.3578  81.2692  5.00116714 27860
